[{"OBJECT_NAME":"STARLINK-34558","OBJECT_ID":"2025-142AB","EPOCH":"2026-03-09T23:27:12.494880","MEAN_MOTION":14.98317882,"ECCENTRICITY":0.00022839,"INCLINATION":70.001,"RA_OF_ASC_NODE":313.7355,"ARG_OF_PERICENTER":257.8018,"MEAN_ANOMALY":102.2886,"EPHEMERIS_TYPE":0,"CLASSIFICATION_TYPE":"U","NORAD_CAT_ID":64721,"ELEMENT_SET_NO":999,"REV_AT_EPOCH":3950,"BSTAR":0.0004854361,"MEAN_MOTION_DOT":5.702e-5,"MEAN_MOTION_DDOT":0},{"OBJECT_NAME":"CZ-4B DEB","OBJECT_ID":"2006-046E","EPOCH":"2026-03-09T15:05:34.126944","MEAN_MOTION":15.05038248,"ECCENTRICITY":0.0035443,"INCLINATION":97.6504,"RA_OF_ASC_NODE":126.4986,"ARG_OF_PERICENTER":210.976,"MEAN_ANOMALY":148.9377,"EPHEMERIS_TYPE":0,"CLASSIFICATION_TYPE":"U","NORAD_CAT_ID":29509,"ELEMENT_SET_NO":999,"REV_AT_EPOCH":5351,"BSTAR":0.00027248,"MEAN_MOTION_DOT":3.86e-5,"MEAN_MOTION_DDOT":0}]
